GSAT0218 (GALILEO 22)   
1 43058U 17079D   26115.36864560 -.00000036  00000+0  00000+0 0  9995
2 43058  55.0881 222.9550 0003304 275.9079  84.0474  1.70474703 52112
GOES 17                 
1 43226U 18022A   26115.86780985 -.00000195  00000+0  00000+0 0  9990
2 43226   0.8053  86.4106 0000672 269.3830  81.0047  1.00272049 29899
GSAT0221 (GALILEO 25)   
1 43564U 18060A   26114.09926935 -.00000088  00000+0  00000+0 0  9999
2 43564  57.1855 343.2419 0003847 321.5085  38.5036  1.70475641 48245
GSAT0222 (GALILEO 26)   
1 43565U 18060B   26115.49200275 -.00000090  00000+0  00000+0 0  9990
2 43565  57.1892 343.2075 0002413 289.5902  70.4237  1.70475419 48313
GSAT0219 (GALILEO 23)   
1 43566U 18060C   26113.95323101 -.00000088  00000+0  00000+0 0  9991
2 43566  57.1884 343.2507 0003351 340.2281  19.7984  1.70475588 48268
GSAT0220 (GALILEO 24)   
1 43567U 18060D   26114.76093408 -.00000089  00000+0  00000+0 0  9997
2 43567  57.1842 343.2275 0003644  44.9018 315.1672  1.70475503 48260
BEIDOU-3 M13            
1 43622U 18072A   26115.37719491 -.00000029  00000+0  00000+0 0  9991
2 43622  56.5807  64.4013 0008899 317.9002  42.0054  1.86230995 51671
BEIDOU-3 M14            
1 43623U 18072B   26114.70569242 -.00000024  00000+0  00000+0 0  9990
2 43623  56.5822  64.4176 0006921 342.3518  17.5993  1.86231012 51655
GPS BIII-1              
1 43873U 18109A   26115.40380374  .00000043  00000+0  00000+0 0  9993
2 43873  55.6508  94.2672 0037882 198.8725 333.2065  2.00559068 54011
METEOR-M2 2             
1 44387U 19038A   26115.84075519  .00000024  00000+0  30052-4 0  9990
2 44387  98.9136 102.3607 0001736 128.7449 231.3884 14.24350594353844
GPS BIII-2              
1 44506U 19056A   26115.04060867 -.00000078  00000+0  00000+0 0  9990
2 44506  55.6607 333.2545 0059535 197.4739 334.4796  2.00569009 49002
BEIDOU-3 M24            
1 44542U 19061A   26112.39917424  .00000003  00000+0  00000+0 0  9998
2 44542  54.3942 184.6097 0008007   7.0098 353.0664  1.86229000 44757
BEIDOU-3 M23            
1 44543U 19061B   26115.23544950 -.00000011  00000+0  00000+0 0  9995
2 44543  54.3928 184.4822 0005038 348.2930  25.2802  1.86227167 44813
BEIDOU-3 M22            
1 44793U 19078A   26114.92307155 -.00000048  00000+0  00000+0 0  9999
2 44793  53.9851 301.7007 0007320  45.7814 314.2766  1.86226959 43654
BEIDOU-3 M21            
1 44794U 19078B   26115.60009457 -.00000052  00000+0  00000+0 0  9995
2 44794  53.9580 301.6394 0005177  43.1798 316.8583  1.86227485 43675
ELEKTRO-L 3             
1 44903U 19095A   26115.79603234 -.00000110  00000+0  00000+0 0  9994
2 44903   0.1231  75.5132 0001052 294.6717 206.1344  1.00271220 23185
GPS BIII-3              
1 45854U 20041A   26115.09615082 -.00000095  00000+0  00000+0 0  9992
2 45854  56.6375  31.0034 0062163 205.0676 307.4587  2.00559675 42970
